{
  "type": "FeatureCollection",
  "features": [
    {
      "type": "Feature",
      "properties": {
        "norad_id": 38709,
        "name": "EXACTVIEW-1 (ADS-1B)",
        "group": "resource",
        "lat": -79.48172220480079,
        "lon": 151.18576239538913,
        "alt_km": 815.4178717939549,
        "timestamp": "2025-12-10T14:53:36.779524+00:00",
        "meta_object_name": "EXACTVIEW-1 (ADS-1B)",
        "meta_object_id": "2012-039C",
        "meta_epoch": "2025-12-10T06:51:45.472608",
        "meta_mean_motion": 14.24906576,
        "meta_eccentricity": 0.00107963,
        "meta_inclination": 98.9635,
        "meta_ra_of_asc_node": 92.6245,
        "meta_arg_of_pericenter": 1.3591,
        "meta_mean_anomaly": 358.7615,
        "meta_ephemeris_type": 0,
        "meta_classification_type": "U",
        "meta_norad_cat_id": 38709,
        "meta_element_set_no": 999,
        "meta_rev_at_epoch": 69580,
        "meta_bstar": 0.00014505122,
        "meta_mean_motion_dot": 2.93e-06,
        "meta_mean_motion_ddot": 0,
        "tle_line1": "1 38709U 12039C   25344.28594297  .00000293  00000+0  14505-3 0  9997",
        "tle_line2": "2 38709  98.9635  92.6245 0010796   1.3591 358.7615 14.24906576695806"
      },
      "geometry": {
        "type": "Point",
        "coordinates": [
          151.18576239538913,
          -79.48172220480079
        ]
      }
    },
    {
      "type": "Feature",
      "properties": {
        "norad_id": 38755,
        "name": "SPOT 6",
        "group": "resource",
        "lat": 46.70971740887713,
        "lon": 40.68613059224317,
        "alt_km": 693.0759401102014,
        "timestamp": "2025-12-10T14:53:36.779534+00:00",
        "meta_object_name": "SPOT 6",
        "meta_object_id": "2012-047A",
        "meta_epoch": "2025-12-10T08:05:30.216192",
        "meta_mean_motion": 14.58599554,
        "meta_eccentricity": 0.00010967,
        "meta_inclination": 98.157,
        "meta_ra_of_asc_node": 49.1657,
        "meta_arg_of_pericenter": 96.6638,
        "meta_mean_anomaly": 263.4686,
        "meta_ephemeris_type": 0,
        "meta_classification_type": "U",
        "meta_norad_cat_id": 38755,
        "meta_element_set_no": 999,
        "meta_rev_at_epoch": 70552,
        "meta_bstar": 0.00014374828,
        "meta_mean_motion_dot": 6.24e-06,
        "meta_mean_motion_ddot": 0,
        "tle_line1": "1 38755U 12047A   25344.33715528  .00000624  00000+0  14375-3 0  9998",
        "tle_line2": "2 38755  98.1570  49.1657 0001096  96.6638 263.4686 14.58599554705525"
      },
      "geometry": {
        "type": "Point",
        "coordinates": [
          40.68613059224317,
          46.70971740887713
        ]
      }
    },
    {
      "type": "Feature",
      "properties": {
        "norad_id": 39019,
        "name": "PLEIADES 1B",
        "group": "resource",
        "lat": -52.93977058632565,
        "lon": 68.28470013246987,
        "alt_km": 705.4520449044076,
        "timestamp": "2025-12-10T14:53:36.779543+00:00",
        "meta_object_name": "PLEIADES 1B",
        "meta_object_id": "2012-068A",
        "meta_epoch": "2025-12-10T06:54:26.108352",
        "meta_mean_motion": 14.58548928,
        "meta_eccentricity": 0.00012253,
        "meta_inclination": 98.1793,
        "meta_ra_of_asc_node": 56.9782,
        "meta_arg_of_pericenter": 82.3344,
        "meta_mean_anomaly": 277.7994,
        "meta_ephemeris_type": 0,
        "meta_classification_type": "U",
        "meta_norad_cat_id": 39019,
        "meta_element_set_no": 999,
        "meta_rev_at_epoch": 69331,
        "meta_bstar": 0.00013903361,
        "meta_mean_motion_dot": 6.01e-06,
        "meta_mean_motion_ddot": 0,
        "tle_line1": "1 39019U 12068A   25344.28780218  .00000601  00000+0  13903-3 0  9998",
        "tle_line2": "2 39019  98.1793  56.9782 0001225  82.3344 277.7994 14.58548928693313"
      },
      "geometry": {
        "type": "Point",
        "coordinates": [
          68.28470013246987,
          -52.93977058632565
        ]
      }
    },
    {
      "type": "Feature",
      "properties": {
        "norad_id": 39030,
        "name": "GOKTURK 2",
        "group": "resource",
        "lat": 33.82526271768224,
        "lon": -178.8161336244805,
        "alt_km": 641.857016062123,
        "timestamp": "2025-12-10T14:53:36.779552+00:00",
        "meta_object_name": "GOKTURK 2",
        "meta_object_id": "2012-073A",
        "meta_epoch": "2025-12-10T06:36:00.616896",
        "meta_mean_motion": 14.75285925,
        "meta_eccentricity": 9.499e-05,
        "meta_inclination": 97.6891,
        "meta_ra_of_asc_node": 186.0495,
        "meta_arg_of_pericenter": 101.3912,
        "meta_mean_anomaly": 258.7405,
        "meta_ephemeris_type": 0,
        "meta_classification_type": "U",
        "meta_norad_cat_id": 39030,
        "meta_element_set_no": 999,
        "meta_rev_at_epoch": 69665,
        "meta_bstar": 0.00016300789,
        "meta_mean_motion_dot": 1.057e-05,
        "meta_mean_motion_ddot": 0,
        "tle_line1": "1 39030U 12073A   25344.27500714  .00001057  00000+0  16301-3 0  9998",
        "tle_line2": "2 39030  97.6891 186.0495 0000949 101.3912 258.7405 14.75285925696650"
      },
      "geometry": {
        "type": "Point",
        "coordinates": [
          -178.8161336244805,
          33.82526271768224
        ]
      }
    },
    {
      "type": "Feature",
      "properties": {
        "norad_id": 39084,
        "name": "LANDSAT 8",
        "group": "resource",
        "lat": 51.81331649620241,
        "lon": -116.70111340648948,
        "alt_km": 697.1069176112796,
        "timestamp": "2025-12-10T14:53:36.779561+00:00",
        "meta_object_name": "LANDSAT 8",
        "meta_object_id": "2013-008A",
        "meta_epoch": "2025-12-10T07:43:07.929984",
        "meta_mean_motion": 14.57110363,
        "meta_eccentricity": 0.00011084,
        "meta_inclination": 98.2075,
        "meta_ra_of_asc_node": 52.4307,
        "meta_arg_of_pericenter": 87.4791,
        "meta_mean_anomaly": 272.6534,
        "meta_ephemeris_type": 0,
        "meta_classification_type": "U",
        "meta_norad_cat_id": 39084,
        "meta_element_set_no": 999,
        "meta_rev_at_epoch": 67039,
        "meta_bstar": 0.00016236182,
        "meta_mean_motion_dot": 6.86e-06,
        "meta_mean_motion_ddot": 0,
        "tle_line1": "1 39084U 13008A   25344.32161956  .00000686  00000+0  16236-3 0  9997",
        "tle_line2": "2 39084  98.2075  52.4307 0001108  87.4791 272.6534 14.57110363670399"
      },
      "geometry": {
        "type": "Point",
        "coordinates": [
          -116.70111340648948,
          51.81331649620241
        ]
      }
    },
    {
      "type": "Feature",
      "properties": {
        "norad_id": 39086,
        "name": "SARAL",
        "group": "resource",
        "lat": -60.37112864638113,
        "lon": -176.0828935719498,
        "alt_km": 791.6642484669674,
        "timestamp": "2025-12-10T14:53:36.779570+00:00",
        "meta_object_name": "SARAL",
        "meta_object_id": "2013-009A",
        "meta_epoch": "2025-12-10T06:48:00.402336",
        "meta_mean_motion": 14.32755725,
        "meta_eccentricity": 0.00028207,
        "meta_inclination": 98.5503,
        "meta_ra_of_asc_node": 168.2459,
        "meta_arg_of_pericenter": 113.2548,
        "meta_mean_anomaly": 246.8933,
        "meta_ephemeris_type": 0,
        "meta_classification_type": "U",
        "meta_norad_cat_id": 39086,
        "meta_element_set_no": 999,
        "meta_rev_at_epoch": 66855,
        "meta_bstar": 9.586012e-05,
        "meta_mean_motion_dot": 2.17e-06,
        "meta_mean_motion_ddot": 0,
        "tle_line1": "1 39086U 13009A   25344.28333799  .00000217  00000+0  95860-4 0  9992",
        "tle_line2": "2 39086  98.5503 168.2459 0002820 113.2548 246.8933 14.32755725668555"
      },
      "geometry": {
        "type": "Point",
        "coordinates": [
          -176.0828935719498,
          -60.37112864638113
        ]
      }
    },
    {
      "type": "Feature",
      "properties": {
        "norad_id": 39150,
        "name": "GAOFEN-1",
        "group": "resource",
        "lat": 75.08212259754494,
        "lon": -93.12366772953715,
        "alt_km": 624.4786772538228,
        "timestamp": "2025-12-10T14:53:36.779579+00:00",
        "meta_object_name": "GAOFEN-1",
        "meta_object_id": "2013-018A",
        "meta_epoch": "2025-12-10T07:55:28.015104",
        "meta_mean_motion": 14.76527291,
        "meta_eccentricity": 0.00180436,
        "meta_inclination": 97.9326,
        "meta_ra_of_asc_node": 55.032,
        "meta_arg_of_pericenter": 150.3515,
        "meta_mean_anomaly": 209.8722,
        "meta_ephemeris_type": 0,
        "meta_classification_type": "U",
        "meta_norad_cat_id": 39150,
        "meta_element_set_no": 999,
        "meta_rev_at_epoch": 68037,
        "meta_bstar": 0.00017312681,
        "meta_mean_motion_dot": 1.159e-05,
        "meta_mean_motion_ddot": 0,
        "tle_line1": "1 39150U 13018A   25344.33018536  .00001159  00000+0  17313-3 0  9991",
        "tle_line2": "2 39150  97.9326  55.0320 0018043 150.3515 209.8722 14.76527291680375"
      },
      "geometry": {
        "type": "Point",
        "coordinates": [
          -93.12366772953715,
          75.08212259754494
        ]
      }
    }
  ]
}